TRANSPORTER-11 OBJECT A 
1 60468U 24149A   26068.74646182  .00010774  00000+0  36054-3 0  9993
2 60468  97.3780 149.0949 0003110 191.0010 169.1164 15.31141332 86830
STARLINK-35942          
1 66926U 25286B   26068.13529124  .00018468  00000+0  63444-3 0  9991
2 66926  53.1621   0.9030 0001520  51.6518 308.4620 15.30183767 15331
